{
    "links": {
        "self": "http://www.neowsapp.com/rest/v1/neo/3076784?api_key=iIulBulltgU6a56xZRHN4H3l9WmuAYTsLGpBGhQ2"
    },
    "id": "3076784",
    "neo_reference_id": "3076784",
    "name": "(2001 HL31)",
    "designation": "2001 HL31",
    "nasa_jpl_url": "http://ssd.jpl.nasa.gov/sbdb.cgi?sstr=3076784",
    "absolute_magnitude_h": 20.3,
    "estimated_diameter": {
        "kilometers": {
            "estimated_diameter_min": 0.2315021222,
            "estimated_diameter_max": 0.5176544822
        },
        "meters": {
            "estimated_diameter_min": 231.5021222103,
            "estimated_diameter_max": 517.6544821978
        },
        "miles": {
            "estimated_diameter_min": 0.1438487052,
            "estimated_diameter_max": 0.3216554833
        },
        "feet": {
            "estimated_diameter_min": 759.5214226325,
            "estimated_diameter_max": 1698.3415313737
        }
    },
    "is_potentially_hazardous_asteroid": true,
    "close_approach_data": [
        {
            "close_approach_date": "2001-05-10",
            "close_approach_date_full": "2001-May-10 13:31",
            "epoch_date_close_approach": 989501460000,
            "relative_velocity": {
                "kilometers_per_second": "25.1324783089",
                "kilometers_per_hour": "90476.9219118787",
                "miles_per_hour": "56218.8407290782"
            },
            "miss_distance": {
                "astronomical": "0.0505698253",
                "lunar": "19.6716620417",
                "kilometers": "7565138.151152111",
                "miles": "4700758.8700406918"
            },
            "orbiting_body": "Earth"
        }
    ],
    "orbital_data": {
        "orbit_id": "17",
        "orbit_determination_date": "2017-04-06 09:16:22",
        "first_observation_date": "2001-04-29",
        "last_observation_date": "2001-05-08",
        "data_arc_in_days": 9,
        "observations_used": 72,
        "orbit_uncertainty": "9",
        "minimum_orbit_intersection": ".049671",
        "jupiter_tisserand_invariant": "2.973",
        "epoch_osculation": "2452031.5",
        "eccentricity": ".778728816205939",
        "semi_major_axis": "2.436045069717438",
        "inclination": "12.85937082268816",
        "ascending_node_longitude": "38.364214253",
        "orbital_period": "1388.757461621864",
        "perihelion_distance": ".5390265763520632",
        "perihelion_argument": "286.8561696305793",
        "aphelion_distance": "4.333063563082812",
        "perihelion_time": "2452086.486434895406",
        "mean_anomaly": "345.7461672686688",
        "mean_motion": ".2592245298034784",
        "equinox": "J2000",
        "orbit_class": {
            "orbit_class_type": "APO",
            "orbit_class_description": "Near-Earth asteroid orbits which cross the Earth’s orbit similar to that of 1862 Apollo",
            "orbit_class_range": "a (semi-major axis) > 1.0 AU; q (perihelion) < 1.017 AU"
        }
    },
    "is_sentry_object": false
}